{
  "type": "FeatureCollection",
  "name": "Template_Power_Grid_Denchai",
  "crs": { "type": "name", "properties": { "name": "urn:ogc:def:crs:OGC:1.3:CRS84" } },
  "features": [
    {
      "type": "Feature",
      "properties": {
        "feature_type": "transformer",
        "asset_id": "TR-DC-01",
        "name_th": "หม้อแปลงไฟฟ้าชุมชนเด่นชัยพัฒนา",
        "capacity_kva": 250,
        "primary_voltage": "22 kV",
        "secondary_voltage": "400/230 V",
        "phase": "3-Phase",
        "owner": "PEA เด่นชัย",
        "load_percentage": 68.5,
        "solar_pv_hosting_capacity_kw": 80.0,
        "status": "active"
      },
      "geometry": {
        "type": "Point",
        "coordinates": [100.05430, 17.98500]
      }
    },
    {
      "type": "Feature",
      "properties": {
        "feature_type": "power_line",
        "asset_id": "LINE-MV-01",
        "name_th": "แนวสายส่งไฟฟ้าแรงสูง 22 kV",
        "voltage_level": "medium_voltage_22kv",
        "conductor_type": "Space Aerial Cable (SAC)",
        "phase": "3-Phase",
        "length_m": 450.0,
        "status": "active"
      },
      "geometry": {
        "type": "LineString",
        "coordinates": [
          [100.05200, 17.98350],
          [100.05430, 17.98500],
          [100.05700, 17.98680]
        ]
      }
    }
  ]
}
