{
  "type": "FeatureCollection",
  "name": "Template_POI_Denchai",
  "crs": { "type": "name", "properties": { "name": "urn:ogc:def:crs:OGC:1.3:CRS84" } },
  "features": [
    {
      "type": "Feature",
      "properties": {
        "id": "poi-01",
        "name_th": "โรงพยาบาลสมเด็จพระยุพราชเด่นชัย",
        "name_en": "Crown Prince Hospital Den Chai",
        "category": "hospital",
        "category_th": "โรงพยาบาล/สถานพยาบาล",
        "description_th": "โรงพยาบาลชุมชนระดับแม่ข่าย ให้บริการรักษาพยาบาลและอุบัติเหตุฉุกเฉิน 24 ชม.",
        "description_en": "Crown Prince Hospital Den Chai providing 24/7 healthcare and emergency services",
        "phone": "054-613111",
        "moo_no": 1,
        "community_name": "ชุมชนบ้านเด่นชัย"
      },
      "geometry": {
        "type": "Point",
        "coordinates": [100.054520, 17.982870]
      }
    },
    {
      "type": "Feature",
      "properties": {
        "id": "poi-02",
        "name_th": "สถานีรถไฟเด่นชัย",
        "name_en": "Den Chai Railway Station",
        "category": "transport",
        "category_th": "คมนาคม/ขนส่ง/สถานีรถไฟ",
        "description_th": "สถานีรถไฟสายเหนือหลัก และชุมทางรถไฟสายใหม่เด่นชัย-เชียงราย-เชียงของ",
        "description_en": "Major northern railway station and junction to Chiang Rai",
        "phone": "054-613144",
        "moo_no": 2,
        "community_name": "ชุมชนสถานีรถไฟเด่นชัย"
      },
      "geometry": {
        "type": "Point",
        "coordinates": [100.056944, 17.983611]
      }
    },
    {
      "type": "Feature",
      "properties": {
        "id": "poi-03",
        "name_th": "วัดเด่นชัยราษฎร์นิยม",
        "name_en": "Wat Den Chai Rat Niyom",
        "category": "temple",
        "category_th": "วัด/ศาสนสถาน",
        "description_th": "วัดศูนย์รวมจิตใจของชุมชนตำบลเด่นชัย",
        "description_en": "Community Buddhist temple and cultural gathering place",
        "phone": "054-613000",
        "moo_no": 1,
        "community_name": "ชุมชนบ้านเด่นชัย"
      },
      "geometry": {
        "type": "Point",
        "coordinates": [100.052800, 17.985500]
      }
    }
  ]
}
