{
  "type": "FeatureCollection",
  "name": "Template_Drainage_System_Denchai",
  "crs": { "type": "name", "properties": { "name": "urn:ogc:def:crs:OGC:1.3:CRS84" } },
  "features": [
    {
      "type": "Feature",
      "properties": {
        "feature_type": "drain_line",
        "asset_id": "DR-LINE-001",
        "drain_type": "u_ditch",
        "drain_type_th": "รางระบายน้ำคอนกรีตตัวยู (U-Ditch มีฝาปิด)",
        "width_m": 0.60,
        "depth_m": 0.80,
        "flow_direction": "north-east",
        "outfall_target": "ลำห้วยแม่พวก",
        "road_name": "ถนนเทศบาล 1",
        "condition": "good",
        "cleaning_status": "cleaned_2567",
        "length_m": 220.0
      },
      "geometry": {
        "type": "LineString",
        "coordinates": [
          [100.05400, 17.98450],
          [100.05480, 17.98520],
          [100.05560, 17.98590]
        ]
      }
    },
    {
      "type": "Feature",
      "properties": {
        "feature_type": "manhole",
        "asset_id": "MH-001",
        "cover_type": "steel_grating",
        "cover_type_th": "ฝาตะแกรงเหล็กรับน้ำผิวทาง",
        "invert_depth_m": 1.20,
        "condition": "normal",
        "last_cleaned": "2026-05-20",
        "road_name": "ถนนเทศบาล 1"
      },
      "geometry": {
        "type": "Point",
        "coordinates": [100.05480, 17.98520]
      }
    }
  ]
}
