{
  "type": "FeatureCollection",
  "name": "Template_Waste_Management_Denchai",
  "crs": { "type": "name", "properties": { "name": "urn:ogc:def:crs:OGC:1.3:CRS84" } },
  "features": [
    {
      "type": "Feature",
      "properties": {
        "feature_type": "waste_bin_station",
        "station_id": "BIN-DC-01",
        "station_name": "จุดทิ้งขยะรวม หน้าตลาดสดเทศบาล",
        "bin_types": "ขยะทั่วไป, ขยะเปียก/อินทรีย์, ขยะรีไซเคิล, ขยะอันตราย",
        "bin_count": 4,
        "capacity_liters": 960,
        "collection_frequency": "ทุกวัน (ช่วง 04:00 - 06:00 น.)",
        "condition": "good",
        "community_name": "ชุมชนบ้านเด่นชัย"
      },
      "geometry": {
        "type": "Point",
        "coordinates": [100.05520, 17.98470]
      }
    },
    {
      "type": "Feature",
      "properties": {
        "feature_type": "waste_collection_route",
        "route_id": "ROUTE-TRUCK-01",
        "route_name": "สายเก็บขยะโซน 1 (ย่านพาณิชย์และสถานีรถไฟ)",
        "truck_license_plate": "81-1234 แพร่",
        "service_days": "จันทร์, พุธ, ศุกร์",
        "est_waste_ton_per_day": 2.8,
        "length_km": 4.5
      },
      "geometry": {
        "type": "LineString",
        "coordinates": [
          [100.05100, 17.98200],
          [100.05400, 17.98450],
          [100.05520, 17.98470],
          [100.05700, 17.98600]
        ]
      }
    }
  ]
}
