{
  "type": "FeatureCollection",
  "name": "Template_Buildings_Denchai",
  "crs": { "type": "name", "properties": { "name": "urn:ogc:def:crs:OGC:1.3:CRS84" } },
  "features": [
    {
      "type": "Feature",
      "properties": {
        "building_id": "BLD-0101-001",
        "building_name": "ที่ว่าการเทศบาลตำบลเด่นชัย",
        "house_no": "199",
        "community_name": "ชุมชนบ้านเด่นชัยพัฒนา",
        "moo_no": 1,
        "building_type": "government",
        "building_type_th": "หน่วยงานราชการ/สาธารณะ",
        "num_floors": 3,
        "structure_type": "rc_concrete",
        "roof_material": "concrete_slab",
        "roof_area_sqm": 650.0,
        "condition": "good",
        "solar_pv_installed": false,
        "notes": "อาคารหลักสำนักงานเทศบาล"
      },
      "geometry": {
        "type": "Polygon",
        "coordinates": [
          [
            [100.05450, 17.98520],
            [100.05480, 17.98520],
            [100.05480, 17.98495],
            [100.05450, 17.98495],
            [100.05450, 17.98520]
          ]
        ]
      }
    },
    {
      "type": "Feature",
      "properties": {
        "building_id": "BLD-0101-002",
        "building_name": "อาคารพาณิชย์และที่อยู่อาศัย",
        "house_no": "12/4",
        "community_name": "ชุมชนสถานีรถไฟเด่นชัย",
        "moo_no": 2,
        "building_type": "commercial",
        "building_type_th": "พาณิชยกรรม / ร้านค้า",
        "num_floors": 2,
        "structure_type": "rc_concrete",
        "roof_material": "metal_sheet",
        "roof_area_sqm": 180.0,
        "condition": "good",
        "solar_pv_installed": true,
        "notes": "ร้านค้าปลีกและที่พักอาศัยชั้นบน"
      },
      "geometry": {
        "type": "Polygon",
        "coordinates": [
          [
            [100.05600, 17.98400],
            [100.05620, 17.98400],
            [100.05620, 17.98380],
            [100.05600, 17.98380],
            [100.05600, 17.98400]
          ]
        ]
      }
    }
  ]
}
