{
  "type": "FeatureCollection",
  "name": "Template_Municipal_Boundary_Denchai",
  "crs": { "type": "name", "properties": { "name": "urn:ogc:def:crs:OGC:1.3:CRS84" } },
  "features": [
    {
      "type": "Feature",
      "properties": {
        "admin_id": "ADM-540501",
        "name_th": "เทศบาลตำบลเด่นชัย",
        "name_en": "Den Chai Sub-district Municipality",
        "amphoe_th": "อำเภอเด่นชัย",
        "province_th": "จังหวัดแพร่",
        "area_sqkm": 26.50,
        "population": 12850,
        "households": 4620,
        "official_website": "https://www.denchai.go.th"
      },
      "geometry": {
        "type": "Polygon",
        "coordinates": [
          [
            [100.04000, 17.97000],
            [100.07500, 17.97000],
            [100.08500, 17.98500],
            [100.07000, 18.00500],
            [100.03500, 17.99500],
            [100.04000, 17.97000]
          ]
        ]
      }
    }
  ]
}
